[{"OBJECT_NAME":"GAOFEN-9 03","OBJECT_ID":"2020-039A","EPOCH":"2026-03-09T21:55:15.121344","MEAN_MOTION":15.30529116,"ECCENTRICITY":0.0013094,"INCLINATION":97.5219,"RA_OF_ASC_NODE":201.2158,"ARG_OF_PERICENTER":77.4533,"MEAN_ANOMALY":282.8172,"EPHEMERIS_TYPE":0,"CLASSIFICATION_TYPE":"U","NORAD_CAT_ID":45794,"ELEMENT_SET_NO":999,"REV_AT_EPOCH":31856,"BSTAR":0.00039258132,"MEAN_MOTION_DOT":0.00011544,"MEAN_MOTION_DDOT":0},{"OBJECT_NAME":"STARLINK-32434","OBJECT_ID":"2024-207B","EPOCH":"2026-03-09T22:03:59.627232","MEAN_MOTION":15.27610225,"ECCENTRICITY":0.00026009,"INCLINATION":43.0007,"RA_OF_ASC_NODE":280.7565,"ARG_OF_PERICENTER":253.1903,"MEAN_ANOMALY":106.8663,"EPHEMERIS_TYPE":0,"CLASSIFICATION_TYPE":"U","NORAD_CAT_ID":61913,"ELEMENT_SET_NO":999,"REV_AT_EPOCH":7475,"BSTAR":0.0013969795,"MEAN_MOTION_DOT":0.00038418,"MEAN_MOTION_DDOT":0}]
